[{"OBJECT_NAME":"STARLINK-32025","OBJECT_ID":"2024-120D","EPOCH":"2025-08-30T20:46:03.591840","MEAN_MOTION":15.3015547,"ECCENTRICITY":0.00014577,"INCLINATION":53.1616,"RA_OF_ASC_NODE":126.0326,"ARG_OF_PERICENTER":99.168,"MEAN_ANOMALY":260.9486,"EPHEMERIS_TYPE":0,"CLASSIFICATION_TYPE":"U","NORAD_CAT_ID":60138,"ELEMENT_SET_NO":999,"REV_AT_EPOCH":6716,"BSTAR":0.00024922124,"MEAN_MOTION_DOT":7.019e-5,"MEAN_MOTION_DDOT":0},{"OBJECT_NAME":"STARLINK-31867","OBJECT_ID":"2024-120E","EPOCH":"2025-08-30T23:22:25.841280","MEAN_MOTION":15.30179163,"ECCENTRICITY":9.822e-5,"INCLINATION":53.1616,"RA_OF_ASC_NODE":126.0075,"ARG_OF_PERICENTER":84.1577,"MEAN_ANOMALY":275.9536,"EPHEMERIS_TYPE":0,"CLASSIFICATION_TYPE":"U","NORAD_CAT_ID":60139,"ELEMENT_SET_NO":999,"REV_AT_EPOCH":6717,"BSTAR":2.3101083e-5,"MEAN_MOTION_DOT":3.25e-6,"MEAN_MOTION_DDOT":0},{"OBJECT_NAME":"STARLINK-31694","OBJECT_ID":"2024-120F","EPOCH":"2025-08-30T23:26:59.399232","MEAN_MOTION":15.30180291,"ECCENTRICITY":0.00011113,"INCLINATION":53.1601,"RA_OF_ASC_NODE":126.0192,"ARG_OF_PERICENTER":81.9488,"MEAN_ANOMALY":278.1639,"EPHEMERIS_TYPE":0,"CLASSIFICATION_TYPE":"U","NORAD_CAT_ID":60140,"ELEMENT_SET_NO":999,"REV_AT_EPOCH":6725,"BSTAR":-4.765731e-6,"MEAN_MOTION_DOT":-5.0e-6,"MEAN_MOTION_DDOT":0},{"OBJECT_NAME":"STARLINK-32036","OBJECT_ID":"2024-120G","EPOCH":"2025-08-30T23:25:28.248096","MEAN_MOTION":15.30176904,"ECCENTRICITY":4.448e-5,"INCLINATION":53.161,"RA_OF_ASC_NODE":126.0134,"ARG_OF_PERICENTER":85.7713,"MEAN_ANOMALY":274.3338,"EPHEMERIS_TYPE":0,"CLASSIFICATION_TYPE":"U","NORAD_CAT_ID":60141,"ELEMENT_SET_NO":999,"REV_AT_EPOCH":6725,"BSTAR":-4.0840915e-5,"MEAN_MOTION_DOT":-1.567e-5,"MEAN_MOTION_DDOT":0},{"OBJECT_NAME":"STARLINK-32031","OBJECT_ID":"2024-120H","EPOCH":"2025-08-30T21:42:17.568000","MEAN_MOTION":15.30186018,"ECCENTRICITY":7.09e-5,"INCLINATION":53.1606,"RA_OF_ASC_NODE":126.2765,"ARG_OF_PERICENTER":64.7779,"MEAN_ANOMALY":295.3295,"EPHEMERIS_TYPE":0,"CLASSIFICATION_TYPE":"U","NORAD_CAT_ID":60142,"ELEMENT_SET_NO":999,"REV_AT_EPOCH":6724,"BSTAR":4.32219e-7,"MEAN_MOTION_DOT":-3.46e-6,"MEAN_MOTION_DDOT":0},{"OBJECT_NAME":"STARLINK-32027","OBJECT_ID":"2024-120J","EPOCH":"2025-08-30T20:39:58.804128","MEAN_MOTION":15.3018541,"ECCENTRICITY":0.00012204,"INCLINATION":53.16,"RA_OF_ASC_NODE":125.9677,"ARG_OF_PERICENTER":81.8126,"MEAN_ANOMALY":278.3013,"EPHEMERIS_TYPE":0,"CLASSIFICATION_TYPE":"U","NORAD_CAT_ID":60143,"ELEMENT_SET_NO":999,"REV_AT_EPOCH":6724,"BSTAR":-4.109984e-6,"MEAN_MOTION_DOT":-4.81e-6,"MEAN_MOTION_DDOT":0},{"OBJECT_NAME":"STARLINK-32033","OBJECT_ID":"2024-120K","EPOCH":"2025-08-30T23:11:47.103360","MEAN_MOTION":15.30190394,"ECCENTRICITY":0.00015869,"INCLINATION":53.1601,"RA_OF_ASC_NODE":125.9524,"ARG_OF_PERICENTER":130.2629,"MEAN_ANOMALY":229.8511,"EPHEMERIS_TYPE":0,"CLASSIFICATION_TYPE":"U","NORAD_CAT_ID":60144,"ELEMENT_SET_NO":999,"REV_AT_EPOCH":6717,"BSTAR":-1.9316469e-5,"MEAN_MOTION_DOT":-9.31e-6,"MEAN_MOTION_DDOT":0},{"OBJECT_NAME":"STARLINK-32029","OBJECT_ID":"2024-120L","EPOCH":"2025-08-30T23:02:40.326144","MEAN_MOTION":15.30186636,"ECCENTRICITY":0.00010842,"INCLINATION":53.1606,"RA_OF_ASC_NODE":125.9123,"ARG_OF_PERICENTER":78.1127,"MEAN_ANOMALY":281.9995,"EPHEMERIS_TYPE":0,"CLASSIFICATION_TYPE":"U","NORAD_CAT_ID":60145,"ELEMENT_SET_NO":999,"REV_AT_EPOCH":6717,"BSTAR":-2.0469767e-5,"MEAN_MOTION_DOT":-9.65e-6,"MEAN_MOTION_DDOT":0},{"OBJECT_NAME":"STARLINK-32127","OBJECT_ID":"2024-120M","EPOCH":"2025-08-30T20:36:56.885472","MEAN_MOTION":15.30184906,"ECCENTRICITY":0.00010977,"INCLINATION":53.1602,"RA_OF_ASC_NODE":125.9954,"ARG_OF_PERICENTER":100.8417,"MEAN_ANOMALY":259.2707,"EPHEMERIS_TYPE":0,"CLASSIFICATION_TYPE":"U","NORAD_CAT_ID":60146,"ELEMENT_SET_NO":999,"REV_AT_EPOCH":6716,"BSTAR":6.624851e-6,"MEAN_MOTION_DOT":-1.63e-6,"MEAN_MOTION_DDOT":0},{"OBJECT_NAME":"STARLINK-32019","OBJECT_ID":"2024-120N","EPOCH":"2025-08-30T20:50:37.425408","MEAN_MOTION":15.30186685,"ECCENTRICITY":0.00012625,"INCLINATION":53.1611,"RA_OF_ASC_NODE":126.0493,"ARG_OF_PERICENTER":94.3148,"MEAN_ANOMALY":265.7997,"EPHEMERIS_TYPE":0,"CLASSIFICATION_TYPE":"U","NORAD_CAT_ID":60147,"ELEMENT_SET_NO":999,"REV_AT_EPOCH":6716,"BSTAR":-6.344396e-6,"MEAN_MOTION_DOT":-5.47e-6,"MEAN_MOTION_DDOT":0},{"OBJECT_NAME":"STARLINK-32021","OBJECT_ID":"2024-120P","EPOCH":"2025-08-30T22:33:55.433088","MEAN_MOTION":15.30190042,"ECCENTRICITY":0.0001052,"INCLINATION":53.1599,"RA_OF_ASC_NODE":115.8378,"ARG_OF_PERICENTER":69.6559,"MEAN_ANOMALY":290.4555,"EPHEMERIS_TYPE":0,"CLASSIFICATION_TYPE":"U","NORAD_CAT_ID":60148,"ELEMENT_SET_NO":999,"REV_AT_EPOCH":6739,"BSTAR":-1.8839697e-5,"MEAN_MOTION_DOT":-9.17e-6,"MEAN_MOTION_DDOT":0},{"OBJECT_NAME":"STARLINK-32022","OBJECT_ID":"2024-120Q","EPOCH":"2025-08-30T22:49:00.852384","MEAN_MOTION":15.30172105,"ECCENTRICITY":0.00012323,"INCLINATION":53.1593,"RA_OF_ASC_NODE":125.8524,"ARG_OF_PERICENTER":63.9323,"MEAN_ANOMALY":296.1805,"EPHEMERIS_TYPE":0,"CLASSIFICATION_TYPE":"U","NORAD_CAT_ID":60149,"ELEMENT_SET_NO":999,"REV_AT_EPOCH":6725,"BSTAR":-6.5641168e-5,"MEAN_MOTION_DOT":-2.301e-5,"MEAN_MOTION_DDOT":0},{"OBJECT_NAME":"STARLINK-32014","OBJECT_ID":"2024-120R","EPOCH":"2025-08-30T22:35:19.120992","MEAN_MOTION":15.30181576,"ECCENTRICITY":0.00011367,"INCLINATION":53.16,"RA_OF_ASC_NODE":125.7929,"ARG_OF_PERICENTER":77.4716,"MEAN_ANOMALY":282.6412,"EPHEMERIS_TYPE":0,"CLASSIFICATION_TYPE":"U","NORAD_CAT_ID":60150,"ELEMENT_SET_NO":999,"REV_AT_EPOCH":6717,"BSTAR":1.5600765e-5,"MEAN_MOTION_DOT":1.03e-6,"MEAN_MOTION_DDOT":0},{"OBJECT_NAME":"STARLINK-32004","OBJECT_ID":"2024-120S","EPOCH":"2025-08-30T22:39:52.448256","MEAN_MOTION":15.30182763,"ECCENTRICITY":0.00013436,"INCLINATION":53.1599,"RA_OF_ASC_NODE":125.813,"ARG_OF_PERICENTER":82.995,"MEAN_ANOMALY":277.1204,"EPHEMERIS_TYPE":0,"CLASSIFICATION_TYPE":"U","NORAD_CAT_ID":60151,"ELEMENT_SET_NO":999,"REV_AT_EPOCH":6725,"BSTAR":3.3256935e-5,"MEAN_MOTION_DOT":6.25e-6,"MEAN_MOTION_DDOT":0},{"OBJECT_NAME":"STARLINK-32147","OBJECT_ID":"2024-120T","EPOCH":"2025-08-30T20:23:25.969632","MEAN_MOTION":15.30192236,"ECCENTRICITY":0.00012444,"INCLINATION":53.1607,"RA_OF_ASC_NODE":126.6453,"ARG_OF_PERICENTER":83.9729,"MEAN_ANOMALY":276.1413,"EPHEMERIS_TYPE":0,"CLASSIFICATION_TYPE":"U","NORAD_CAT_ID":60152,"ELEMENT_SET_NO":999,"REV_AT_EPOCH":6715,"BSTAR":6.77362e-7,"MEAN_MOTION_DOT":-3.39e-6,"MEAN_MOTION_DDOT":0},{"OBJECT_NAME":"STARLINK-32131","OBJECT_ID":"2024-120U","EPOCH":"2025-08-30T23:07:13.650816","MEAN_MOTION":15.30184007,"ECCENTRICITY":0.00010197,"INCLINATION":53.1603,"RA_OF_ASC_NODE":125.9302,"ARG_OF_PERICENTER":73.2447,"MEAN_ANOMALY":286.8666,"EPHEMERIS_TYPE":0,"CLASSIFICATION_TYPE":"U","NORAD_CAT_ID":60153,"ELEMENT_SET_NO":999,"REV_AT_EPOCH":6725,"BSTAR":2.2477718e-5,"MEAN_MOTION_DOT":3.06e-6,"MEAN_MOTION_DDOT":0}]
