STARLINK-32025          
1 60138U 24120D   25242.86531935  .00007019  00000+0  24922-3 0  9990
2 60138  53.1616 126.0326 0001457  99.1680 260.9486 15.30155470 67168
STARLINK-31867          
1 60139U 24120E   25242.97391020  .00000325  00000+0  23101-4 0  9994
2 60139  53.1616 126.0075 0000982  84.1577 275.9536 15.30179163 67179
STARLINK-31694          
1 60140U 24120F   25242.97707638 -.00000500  00000+0 -47657-5 0  9992
2 60140  53.1601 126.0192 0001111  81.9488 278.1639 15.30180291 67258
STARLINK-32036          
1 60141U 24120G   25242.97602139 -.00001567  00000+0 -40841-4 0  9994
2 60141  53.1610 126.0134 0000444  85.7713 274.3338 15.30176904 67256
STARLINK-32031          
1 60142U 24120H   25242.90437000 -.00000346  00000+0  43222-6 0  9992
2 60142  53.1606 126.2765 0000709  64.7779 295.3295 15.30186018 67248
STARLINK-32027          
1 60143U 24120J   25242.86109727 -.00000481  00000+0 -41100-5 0  9993
2 60143  53.1600 125.9677 0001220  81.8126 278.3013 15.30185410 67240
STARLINK-32033          
1 60144U 24120K   25242.96651740 -.00000931  00000+0 -19316-4 0  9995
2 60144  53.1601 125.9524 0001586 130.2629 229.8511 15.30190394 67178
STARLINK-32029          
1 60145U 24120L   25242.96018896 -.00000965  00000+0 -20470-4 0  9995
2 60145  53.1606 125.9123 0001084  78.1127 281.9995 15.30186636 67174
STARLINK-32127          
1 60146U 24120M   25242.85899173 -.00000163  00000+0  66249-5 0  9993
2 60146  53.1602 125.9954 0001097 100.8417 259.2707 15.30184906 67168
STARLINK-32019          
1 60147U 24120N   25242.86848872 -.00000547  00000+0 -63444-5 0  9996
2 60147  53.1611 126.0493 0001262  94.3148 265.7997 15.30186685 67160
STARLINK-32021          
1 60148U 24120P   25242.94022492 -.00000917  00000+0 -18840-4 0  9998
2 60148  53.1599 115.8378 0001052  69.6559 290.4555 15.30190042 67394
STARLINK-32022          
1 60149U 24120Q   25242.95070431 -.00002301  00000+0 -65641-4 0  9996
2 60149  53.1593 125.8524 0001232  63.9323 296.1805 15.30172105 67255
STARLINK-32014          
1 60150U 24120R   25242.94119353  .00000103  00000+0  15601-4 0  9991
2 60150  53.1600 125.7929 0001136  77.4716 282.6412 15.30181576 67170
STARLINK-32004          
1 60151U 24120S   25242.94435704  .00000625  00000+0  33257-4 0  9999
2 60151  53.1599 125.8130 0001343  82.9950 277.1204 15.30182763 67250
STARLINK-32147          
1 60152U 24120T   25242.84960613 -.00000339  00000+0  67736-6 0  9995
2 60152  53.1607 126.6453 0001244  83.9729 276.1413 15.30192236 67159
STARLINK-32131          
1 60153U 24120U   25242.96335244  .00000306  00000+0  22478-4 0  9990
2 60153  53.1603 125.9302 0001019  73.2447 286.8666 15.30184007 67256
